start=new Date('2022-05-10T00:00:00.000Z').valueOf();
sats=[{"BSTAR":"0.00005211400000","PERIAPSIS":"546.196","SEMIMAJOR_AXIS":"6925.349","MEAN_MOTION_DDOT":"0.0000000000000","INCLINATION":"53.0542","ECCENTRICITY":"0.00014700","MEAN_ANOMALY":"290.9274","CENTER_NAME":"EARTH","EPHEMERIS_TYPE":"0","TIME_SYSTEM":"UTC","TLE_LINE1":"1 45370U 20019L   22129.82021142  .00000495  00000-0  52114-4 0  9992","RA_OF_ASC_NODE":"330.8869","REV_AT_EPOCH":"11874","APOAPSIS":"548.232","NORAD_CAT_ID":"45370","FILE":"3438010","OBJECT_ID":"2020-019L","COUNTRY_CODE":"US","EPOCH":"2022-05-09T19:41:06.266688","OBJECT_NAME":"STARLINK-1281","SITE":"AFETR","LAUNCH_DATE":"2020-03-18","REF_FRAME":"TEME","TLE_LINE2":"2 45370  53.0542 330.8869 0001470  69.1872 290.9274 15.06399733118742","MEAN_ELEMENT_THEORY":"SGP4","CLASSIFICATION_TYPE":"U","GP_ID":"203139996","RCS_SIZE":"LARGE","MEAN_MOTION_DOT":"0.00000495","PERIOD":"95.592","ARG_OF_PERICENTER":"69.1872","MEAN_MOTION":"15.06399733","ELEMENT_SET_NO":"999","DECAY_DATE":null,"OBJECT_TYPE":"PAYLOAD"},{"REF_FRAME":"TEME","SITE":"AFETR","OBJECT_NAME":"STARLINK-1287","LAUNCH_DATE":"2020-03-18","TLE_LINE2":"2 45371  53.0561 330.7484 0001449  87.7030 272.4125 15.06403418118740","OBJECT_ID":"2020-019M","EPOCH":"2022-05-09T20:23:34.434240","COUNTRY_CODE":"US","ELEMENT_SET_NO":"999","MEAN_MOTION":"15.06403418","ARG_OF_PERICENTER":"87.7030","OBJECT_TYPE":"PAYLOAD","DECAY_DATE":null,"CLASSIFICATION_TYPE":"U","MEAN_ELEMENT_THEORY":"SGP4","GP_ID":"203138758","MEAN_MOTION_DOT":"0.00001023","RCS_SIZE":"LARGE","PERIOD":"95.592","INCLINATION":"53.0561","ECCENTRICITY":"0.00014490","BSTAR":"0.00008753300000","PERIAPSIS":"546.200","SEMIMAJOR_AXIS":"6925.338","MEAN_MOTION_DDOT":"0.0000000000000","REV_AT_EPOCH":"11874","APOAPSIS":"548.207","NORAD_CAT_ID":"45371","FILE":"3438010","CENTER_NAME":"EARTH","MEAN_ANOMALY":"272.4125","TIME_SYSTEM":"UTC","EPHEMERIS_TYPE":"0","TLE_LINE1":"1 45371U 20019M   22129.84970410  .00001023  00000-0  87533-4 0  9997","RA_OF_ASC_NODE":"330.7484"},{"INCLINATION":"53.0538","ECCENTRICITY":"0.00015820","PERIAPSIS":"546.107","SEMIMAJOR_AXIS":"6925.338","BSTAR":"0.00005307000000","MEAN_MOTION_DDOT":"0.0000000000000","NORAD_CAT_ID":"45372","APOAPSIS":"548.298","REV_AT_EPOCH":"11874","FILE":"3438010","TIME_SYSTEM":"UTC","EPHEMERIS_TYPE":"0","CENTER_NAME":"EARTH","MEAN_ANOMALY":"300.1151","RA_OF_ASC_NODE":"330.6894","TLE_LINE1":"1 45372U 20019N   22129.86444996  .00000509  00000-0  53070-4 0  9992","TLE_LINE2":"2 45372  53.0538 330.6894 0001582  59.9994 300.1151 15.06403494118749","REF_FRAME":"TEME","SITE":"AFETR","LAUNCH_DATE":"2020-03-18","OBJECT_NAME":"STARLINK-1288","OBJECT_ID":"2020-019N","EPOCH":"2022-05-09T20:44:48.476544","COUNTRY_CODE":"US","ELEMENT_SET_NO":"999","ARG_OF_PERICENTER":"59.9994","MEAN_MOTION":"15.06403494","DECAY_DATE":null,"OBJECT_TYPE":"PAYLOAD","GP_ID":"203139005","CLASSIFICATION_TYPE":"U","MEAN_ELEMENT_THEORY":"SGP4","PERIOD":"95.592","RCS_SIZE":"LARGE","MEAN_MOTION_DOT":"0.00000509"},{"OBJECT_ID":"2020-019P","COUNTRY_CODE":"US","EPOCH":"2022-05-09T20:18:16.461504","LAUNCH_DATE":"2020-03-18","SITE":"AFETR","OBJECT_NAME":"STARLINK-1295","REF_FRAME":"TEME","TLE_LINE2":"2 45373  53.0555 330.7560 0001347  79.8478 280.2663 15.06393463118747","MEAN_ELEMENT_THEORY":"SGP4","CLASSIFICATION_TYPE":"U","GP_ID":"203139759","RCS_SIZE":"LARGE","MEAN_MOTION_DOT":"0.00000290","PERIOD":"95.593","MEAN_MOTION":"15.06393463","ARG_OF_PERICENTER":"79.8478","ELEMENT_SET_NO":"999","OBJECT_TYPE":"PAYLOAD","DECAY_DATE":null,"BSTAR":"0.00003836200000","SEMIMAJOR_AXIS":"6925.369","PERIAPSIS":"546.301","MEAN_MOTION_DDOT":"0.0000000000000","INCLINATION":"53.0555","ECCENTRICITY":"0.00013470","MEAN_ANOMALY":"280.2663","CENTER_NAME":"EARTH","EPHEMERIS_TYPE":"0","TIME_SYSTEM":"UTC","TLE_LINE1":"1 45373U 20019P   22129.84602386  .00000290  00000-0  38362-4 0  9994","RA_OF_ASC_NODE":"330.7560","REV_AT_EPOCH":"11874","NORAD_CAT_ID":"45373","APOAPSIS":"548.166","FILE":"3438010"},{"ECCENTRICITY":"0.00014500","INCLINATION":"53.0548","MEAN_MOTION_DDOT":"0.0000000000000","SEMIMAJOR_AXIS":"6925.334","PERIAPSIS":"546.195","BSTAR":"0.00014056000000","FILE":"3438010","APOAPSIS":"548.203","NORAD_CAT_ID":"45374","REV_AT_EPOCH":"11874","RA_OF_ASC_NODE":"330.7764","TLE_LINE1":"1 45374U 20019Q   22129.84233211  .00001813  00000-0  14056-3 0  9997","EPHEMERIS_TYPE":"0","TIME_SYSTEM":"UTC","MEAN_ANOMALY":"274.6384","CENTER_NAME":"EARTH","TLE_LINE2":"2 45374  53.0548 330.7764 0001450  85.4770 274.6384 15.06404694118745","SITE":"AFETR","LAUNCH_DATE":"2020-03-18","OBJECT_NAME":"STARLINK-1300","REF_FRAME":"TEME","COUNTRY_CODE":"US","EPOCH":"2022-05-09T20:12:57.494304","OBJECT_ID":"2020-019Q","OBJECT_TYPE":"PAYLOAD","DECAY_DATE":null,"ARG_OF_PERICENTER":"85.4770","MEAN_MOTION":"15.06404694","ELEMENT_SET_NO":"999","PERIOD":"95.592","RCS_SIZE":"LARGE","MEAN_MOTION_DOT":"0.00001813","GP_ID":"203140496","MEAN_ELEMENT_THEORY":"SGP4","CLASSIFICATION_TYPE":"U"},{"OBJECT_ID":"2020-019R","COUNTRY_CODE":"US","EPOCH":"2022-05-09T20:34:11.981568","TLE_LINE2":"2 45375  53.0553 330.7128 0001354  74.6282 285.4856 15.06394519118745","LAUNCH_DATE":"2020-03-18","SITE":"AFETR","OBJECT_NAME":"STARLINK-1302","REF_FRAME":"TEME","GP_ID":"203139258","MEAN_ELEMENT_THEORY":"SGP4","CLASSIFICATION_TYPE":"U","PERIOD":"95.592","MEAN_MOTION_DOT":"0.00000650","RCS_SIZE":"LARGE","MEAN_MOTION":"15.06394519","ARG_OF_PERICENTER":"74.6282","ELEMENT_SET_NO":"999","OBJECT_TYPE":"PAYLOAD","DECAY_DATE":null,"PERIAPSIS":"546.293","SEMIMAJOR_AXIS":"6925.365","BSTAR":"0.00006253400000","MEAN_MOTION_DDOT":"0.0000000000000","INCLINATION":"53.0553","ECCENTRICITY":"0.00013540","EPHEMERIS_TYPE":"0","TIME_SYSTEM":"UTC","MEAN_ANOMALY":"285.4856","CENTER_NAME":"EARTH","RA_OF_ASC_NODE":"330.7128","TLE_LINE1":"1 45375U 20019R   22129.85708312  .00000650  00000-0  62534-4 0  9991","APOAPSIS":"548.168","NORAD_CAT_ID":"45375","REV_AT_EPOCH":"11874","FILE":"3438010"},{"CENTER_NAME":"EARTH","MEAN_ANOMALY":"267.5325","TIME_SYSTEM":"UTC","EPHEMERIS_TYPE":"0","TLE_LINE1":"1 45376U 20019S   22129.87551000  .00002661  00000-0  19749-3 0  9997","RA_OF_ASC_NODE":"330.6402","REV_AT_EPOCH":"11874","NORAD_CAT_ID":"45376","APOAPSIS":"548.216","FILE":"3438010","BSTAR":"0.00019749000000","SEMIMAJOR_AXIS":"6925.354","PERIAPSIS":"546.222","MEAN_MOTION_DDOT":"0.0000000000000","INCLINATION":"53.0540","ECCENTRICITY":"0.00014390","CLASSIFICATION_TYPE":"U","MEAN_ELEMENT_THEORY":"SGP4","GP_ID":"203139505","RCS_SIZE":"LARGE","MEAN_MOTION_DOT":"0.00002661","PERIOD":"95.592","ELEMENT_SET_NO":"999","ARG_OF_PERICENTER":"92.5829","MEAN_MOTION":"15.06398217","OBJECT_TYPE":"PAYLOAD","DECAY_DATE":null,"OBJECT_ID":"2020-019S","EPOCH":"2022-05-09T21:00:44.064000","COUNTRY_CODE":"US","REF_FRAME":"TEME","SITE":"AFETR","LAUNCH_DATE":"2020-03-18","OBJECT_NAME":"STARLINK-1304","TLE_LINE2":"2 45376  53.0540 330.6402 0001439  92.5829 267.5325 15.06398217118747"},{"CLASSIFICATION_TYPE":"U","MEAN_ELEMENT_THEORY":"SGP4","GP_ID":"203140259","MEAN_MOTION_DOT":"0.00004330","RCS_SIZE":"LARGE","PERIOD":"95.592","ELEMENT_SET_NO":"999","ARG_OF_PERICENTER":"76.3111","MEAN_MOTION":"15.06406757","OBJECT_TYPE":"PAYLOAD","DECAY_DATE":null,"OBJECT_ID":"2020-019T","EPOCH":"2022-05-09T20:02:20.707296","COUNTRY_CODE":"US","REF_FRAME":"TEME","OBJECT_NAME":"STARLINK-1305","SITE":"AFETR","LAUNCH_DATE":"2020-03-18","TLE_LINE2":"2 45377  53.0544 330.8017 0001487  76.3111 283.8044 15.06406757118741","CENTER_NAME":"EARTH","MEAN_ANOMALY":"283.8044","TIME_SYSTEM":"UTC","EPHEMERIS_TYPE":"0","TLE_LINE1":"1 45377U 20019T   22129.83496189  .00004330  00000-0  30937-3 0  9997","RA_OF_ASC_NODE":"330.8017","REV_AT_EPOCH":"11874","APOAPSIS":"548.223","NORAD_CAT_ID":"45377","FILE":"3438010","BSTAR":"0.00030937000000","SEMIMAJOR_AXIS":"6925.328","PERIAPSIS":"546.163","MEAN_MOTION_DDOT":"0.0000000000000","INCLINATION":"53.0544","ECCENTRICITY":"0.00014870"},{"INCLINATION":"53.0536","ECCENTRICITY":"0.00013110","SEMIMAJOR_AXIS":"6925.343","PERIAPSIS":"546.300","BSTAR":"0.00010465000000","MEAN_MOTION_DDOT":"0.0000000000000","NORAD_CAT_ID":"45378","APOAPSIS":"548.116","REV_AT_EPOCH":"11874","FILE":"3438010","EPHEMERIS_TYPE":"0","TIME_SYSTEM":"UTC","MEAN_ANOMALY":"279.3196","CENTER_NAME":"EARTH","RA_OF_ASC_NODE":"330.8607","TLE_LINE1":"1 45378U 20019U   22129.82390256  .00001278  00000-0  10465-3 0  9997","TLE_LINE2":"2 45378  53.0536 330.8607 0001311  80.7941 279.3196 15.06401764118745","SITE":"AFETR","OBJECT_NAME":"STARLINK-1310","LAUNCH_DATE":"2020-03-18","REF_FRAME":"TEME","OBJECT_ID":"2020-019U","COUNTRY_CODE":"US","EPOCH":"2022-05-09T19:46:25.181184","MEAN_MOTION":"15.06401764","ARG_OF_PERICENTER":"80.7941","ELEMENT_SET_NO":"999","DECAY_DATE":null,"OBJECT_TYPE":"PAYLOAD","GP_ID":"203139997","MEAN_ELEMENT_THEORY":"SGP4","CLASSIFICATION_TYPE":"U","PERIOD":"95.592","RCS_SIZE":"LARGE","MEAN_MOTION_DOT":"0.00001278"},{"OBJECT_TYPE":"PAYLOAD","DECAY_DATE":null,"ELEMENT_SET_NO":"999","MEAN_MOTION":"15.06405802","ARG_OF_PERICENTER":"75.3525","RCS_SIZE":"LARGE","MEAN_MOTION_DOT":"0.00001596","PERIOD":"95.592","CLASSIFICATION_TYPE":"U","MEAN_ELEMENT_THEORY":"SGP4","GP_ID":"203138759","REF_FRAME":"TEME","LAUNCH_DATE":"2020-03-18","SITE":"AFETR","OBJECT_NAME":"STARLINK-1319","TLE_LINE2":"2 45379  53.0557 330.8391 0001533  75.3525 284.7634 15.06405802118747","EPOCH":"2022-05-09T19:51:43.150464","COUNTRY_CODE":"US","OBJECT_ID":"2020-019V","FILE":"3438010","REV_AT_EPOCH":"11874","APOAPSIS":"548.257","NORAD_CAT_ID":"45379","TLE_LINE1":"1 45379U 20019V   22129.82758276  .00001596  00000-0  12602-3 0  9996","RA_OF_ASC_NODE":"330.8391","CENTER_NAME":"EARTH","MEAN_ANOMALY":"284.7634","TIME_SYSTEM":"UTC","EPHEMERIS_TYPE":"0","ECCENTRICITY":"0.00015330","INCLINATION":"53.0557","MEAN_MOTION_DDOT":"0.0000000000000","BSTAR":"0.00012602000000","PERIAPSIS":"546.134","SEMIMAJOR_AXIS":"6925.331"}];
